STARLINK-31157          
1 58735U 24005H   26068.47214666 -.00003655  00000+0 -12663-3 0  9998
2 58735  43.0049 220.6985 0002688 288.4771  71.5788 15.26735045120415
FLOCK 4G-2              
1 62661U 25009BE  26068.66207492  .00013752  00000+0  51068-3 0  9995
2 62661  97.4044 151.2221 0003181 329.2677  30.8376 15.27675260121321
